STARLINK-3614           
1 51771U 22017D   25027.09449265  .00000926  00000+0  76249-4 0  9996
2 51771  53.2186   4.3903 0001572  98.6538 261.4632 15.08834683161223
STARLINK-3623           
1 51772U 22017E   25027.35209344  .00003660  00000+0  24800-3 0  9991
2 51772  53.2188   3.2389 0001522  93.8213 266.2953 15.08827026161259
STARLINK-3624           
1 51773U 22017F   25027.35672119  .00000911  00000+0  75299-4 0  9991
2 51773  53.2186   3.1892 0001488  82.8192 277.2969 15.08839859161268
STARLINK-3629           
1 51774U 22017G   25027.07976682 -.00001144  00000+0 -53814-4 0  9993
2 51774  53.2170   4.4616 0001420 102.9684 257.1467 15.08846636161188
STARLINK-3620           
1 51775U 22017H   25027.09080280  .00001404  00000+0  10631-3 0  9992
2 51775  53.2184   4.4071 0001541  89.2618 270.8551 15.08836123161228
STARLINK-3608           
1 51776U 22017J   25027.34104793  .00000758  00000+0  65707-4 0  9993
2 51776  53.2203   3.2905 0001616  98.0951 262.0224 15.08840112161228
STARLINK-3625           
1 51777U 22017K   25027.34568453  .00000502  00000+0  49625-4 0  9999
2 51777  53.2182   3.2405 0001635 101.8937 258.2239 15.08838566161254
STARLINK-3615           
1 51778U 22017L   25027.28306978  .00004653  00000+0  31014-3 0  9998
2 51778  53.2192 353.4236 0001331  91.4147 268.6997 15.08853005161204
STARLINK-3611           
1 51779U 22017M   25027.34201150  .00000183  00000+0  29582-4 0  9994
2 51779  53.2198   3.3346 0001520  92.2565 267.8601 15.08837985161221
STARLINK-3617           
1 51780U 22017N   25027.32632827  .00000913  00000+0  75436-4 0  9993
2 51780  53.2222   3.3417 0001887 103.8859 256.2343 15.08840233161079
STARLINK-3580           
1 51781U 22017P   25027.13127112  .00001782  00000+0  13000-3 0  9992
2 51781  53.2190   4.1929 0002028  95.8209 264.3014 15.08856652161042
STARLINK-3616           
1 51782U 22017Q   25027.10092604  .00002370  00000+0  16686-3 0  9994
2 51782  53.2190  14.5222 0001419  94.4800 265.6355 15.08856526160804
STARLINK-3628           
1 51783U 22017R   25027.06968425  .00001443  00000+0  10870-3 0  9992
2 51783  53.2183   4.5540 0001496  99.2975 260.8186 15.08846670161034
STARLINK-3632           
1 51784U 22017S   25027.34744975  .00006000  00000+0  39426-3 0  9998
2 51784  53.2194  13.2592 0001666  95.3301 264.7882 15.08884810160932
STARLINK-3646           
1 51785U 22017T   25027.32360797 -.00000022  00000+0  16693-4 0  9994
2 51785  53.2211   3.3337 0001594  94.9500 265.1674 15.08837081161074
STARLINK-3638           
1 51786U 22017U   25027.34012752  .00002531  00000+0  17703-3 0  9990
2 51786  53.2191  13.2942 0001318  90.8806 269.2337 15.08845793160936
STARLINK-3619           
1 51787U 22017V   25027.35482925  .00003499  00000+0  23768-3 0  9997
2 51787  53.2183  13.2268 0001515  98.5002 261.6162 15.08863023160939
STARLINK-3641           
1 51788U 22017W   25027.39532820  .00001568  00000+0  11657-3 0  9991
2 51788  53.2200  13.0474 0001582  99.7907 260.3264 15.08843278162580
STARLINK-3639           
1 51789U 22017X   25027.34381603  .00006439  00000+0  42261-3 0  9995
2 51789  53.2193  13.2763 0001592  79.3812 280.7360 15.08813751160938
STARLINK-3631           
1 51790U 22017Y   25027.12669229 -.00000015  00000+0  17149-4 0  9999
2 51790  53.2200  14.2524 0002120 123.6214 236.4980 15.08827745162590
STARLINK-3602           
1 51791U 22017Z   25027.33645636  .00001631  00000+0  12058-3 0  9996
2 51791  53.2208  13.3110 0001517  91.6752 268.4413 15.08833477162573
STARLINK-3626           
1 51792U 22017AA  25027.11933710  .00006477  00000+0  42482-3 0  9993
2 51792  53.2192  14.2823 0001175  87.4108 272.7019 15.08827475162598
STARLINK-3633           
1 51793U 22017AB  25027.33373199 -.00001297  00000+0 -63377-4 0  9991
2 51793  53.2201  13.3334 0001420  96.9041 263.2113 15.08847677162621
STARLINK-3573           
1 51794U 22017AC  25027.37693129  .00000314  00000+0  37829-4 0  9994
2 51794  53.2189  13.1271 0001532  92.7676 267.3492 15.08836770162589
STARLINK-3586           
1 51795U 22017AD  25027.33279882  .00007172  00000+0  46833-3 0  9990
2 51795  53.2193  13.5276 0001481  90.1595 269.9567 15.08834307162573
STARLINK-3634           
1 51798U 22017AG  25027.36218745  .00003058  00000+0  21006-3 0  9991
2 51798  53.2187  13.1939 0001817  96.7057 263.4142 15.08861218162624
STARLINK-3637           
1 51799U 22017AH  25027.37324978  .00000219  00000+0  31855-4 0  9999
2 51799  53.2184  13.1442 0001438 101.3554 258.7600 15.08836702162586
STARLINK-3592           
1 51801U 22017AK  25027.36956095  .00002315  00000+0  16350-3 0  9994
2 51801  53.2173  13.1597 0001257  92.0929 268.0207 15.08833785162585
STARLINK-3557           
1 51802U 22017AL  25027.12196205  .00016737  00000+0  10569-2 0  9996
2 51802  53.2180  14.2513 0001690 101.7800 258.3382 15.09195598162547
STARLINK-3544           
1 51803U 22017AM  25027.15980859 -.00000051  00000+0  14907-4 0  9991
2 51803  53.2188  14.1029 0001092  97.2107 262.9010 15.08839010162544
STARLINK-3601           
1 51804U 22017AN  25027.04020523  .00000393  00000+0  42791-4 0  9993
2 51804  53.2215 354.6364 0001592 113.4820 246.6339 15.08847676162762
STARLINK-3605           
1 51805U 22017AP  25027.04389291  .00000516  00000+0  50530-4 0  9991
2 51805  53.2210 354.6944 0001807 136.5964 223.5170 15.08844775162850
STARLINK-3606           
1 51807U 22017AR  25027.32265110  .00000298  00000+0  36841-4 0  9993
2 51807  53.2201   3.3705 0001622  88.9325 271.1853 15.08839911162764
STARLINK-3609           
1 51808U 22017AS  25027.30793548  .00001110  00000+0  87835-4 0  9996
2 51808  53.2202   3.4374 0001463  85.7843 274.3317 15.08833206162617
STARLINK-3607           
1 51809U 22017AT  25027.31529429 -.00001438  00000+0 -72292-4 0  9999
2 51809  53.2201   3.3643 0001487  86.4079 273.7083 15.08841688162717
STARLINK-3613           
1 51810U 22017AU  25027.35303546  .00004520  00000+0  30189-3 0  9996
2 51810  53.2187 353.4559 0001579  95.7421 264.3751 15.08841473162735
STARLINK-3569           
1 51811U 22017AV  25027.31160592  .00001520  00000+0  11355-3 0  9996
2 51811  53.2186   3.4212 0001514  95.3337 264.7828 15.08840403162612
STARLINK-3610           
1 51812U 22017AW  25027.05495550 -.00002128  00000+0 -11573-3 0  9992
2 51812  53.2180 354.5747 0001270  92.3443 267.7695 15.08817151162691
STARLINK-3552           
1 51813U 22017AX  25027.30151070  .00003366  00000+0  22953-3 0  9994
2 51813  53.2200 353.4958 0001484  93.8566 266.2595 15.08826138162739
STARLINK-3599           
1 51814U 22017AY  25027.18004736  .00002777  00000+0  19252-3 0  9990
2 51814  53.2183 354.0130 0001801  98.2050 261.9146 15.08837311162716
STARLINK-3604           
1 51815U 22017AZ  25027.05125342  .00004138  00000+0  27785-3 0  9997
2 51815  53.2190 354.5904 0003182 136.6449 223.4794 15.08850388162690
STARLINK-3603           
1 51816U 22017BA  25027.33191869 -.00000188  00000+0  62801-5 0  9998
2 51816  53.2201 353.5728 0001798 103.4877 256.6316 15.08838405162789
STARLINK-3542           
1 51852U 22022A   25027.27113103  .00000653  00000+0  59088-4 0  9990
2 51852  53.2187  43.6035 0001450  95.0502 265.0656 15.08838008160403
STARLINK-3539           
1 51853U 22022B   25027.30420252  .00001476  00000+0  11079-3 0  9992
2 51853  53.2177  43.0675 0001506 104.7562 255.3597 15.08837877161616
STARLINK-3541           
1 51854U 22022C   25027.39993403  .00000700  00000+0  62071-4 0  9993
2 51854  53.2190  43.0252 0001505  84.0419 276.0745 15.08832197161685
STARLINK-3545           
1 51855U 22022D   25027.45142486  .00002462  00000+0  17270-3 0  9995
2 51855  53.2191  42.7143 0001683  94.4640 265.6544 15.08852369161640
STARLINK-3568           
1 51856U 22022E   25027.33096903 -.00000502  00000+0 -13441-4 0  9997
2 51856  53.2189  43.3427 0001366  91.3792 268.7357 15.08842546161701
STARLINK-3571           
1 51857U 22022F   25027.45240683  .00000507  00000+0  49963-4 0  9998
2 51857  53.2185  42.7982 0001450  91.4536 268.6622 15.08838295161696
STARLINK-3563           
1 51858U 22022G   25027.19016934 -.00000081  00000+0  12959-4 0  9993
2 51858  53.2185  43.9630 0000905 117.4417 242.6667 15.08839741161655
STARLINK-3560           
1 51859U 22022H   25027.40548714  .00001247  00000+0  96445-4 0  9990
2 51859  53.2182  33.0107 0001423  89.6066 270.5089 15.08841055161826
STARLINK-3559           
1 51860U 22022J   25027.41188540  .00000947  00000+0  77568-4 0  9991
2 51860  53.2176  32.9712 0001391  91.9536 268.1616 15.08842222161784
STARLINK-3562           
1 51861U 22022K   25027.33094720  .00002222  00000+0  15767-3 0  9999
2 51861  53.2195  33.3355 0001597  93.6454 266.4721 15.08840067161682
STARLINK-3508           
1 51862U 22022L   25027.27572770  .00000514  00000+0  50394-4 0  9997
2 51862  53.2181  33.5823 0001257  96.4990 263.6145 15.08838592161813
STARLINK-3555           
1 51863U 22022M   25027.32357235  .00001533  00000+0  11437-3 0  9997
2 51863  53.2188  33.3689 0001538  85.4183 274.6985 15.08837994161766
STARLINK-3548           
1 51864U 22022N   25027.32722122 -.00021586  00000+0 -13388-2 0  9997
2 51864  53.2196  33.2749 0001004 108.9145 251.1956 15.08934860161813
STARLINK-3503           
1 51865U 22022P   25027.24997159  .00002053  00000+0  14703-3 0  9992
2 51865  53.2205  33.7009 0001672 100.3399 259.7782 15.08841995161757
STARLINK-3553           
1 51866U 22022Q   25027.37971645 -.00002624  00000+0 -14676-3 0  9994
2 51866  53.2191  32.9729 0001225 115.8739 244.2380 15.08859039161778
STARLINK-3590           
1 51867U 22022R   25027.18005350  .00001229  00000+0  95336-4 0  9996
2 51867  53.2194  34.0134 0001373  99.5384 260.5763 15.08834493161743
STARLINK-3578           
1 51868U 22022S   25027.31989466  .00001425  00000+0  10761-3 0  9997
2 51868  53.2195  33.3859 0001438  94.1287 265.9869 15.08836627161765
